{"object": {"fullname": "2001 Einstein (1973 EB)", "des": "2001", "kind": "an", "orbit_class": {"name": "Inner Main-belt Asteroid", "code": "IMB"}, "pha": false, "shortname": "2001 Einstein", "spkid": "20002001", "neo": false, "orbit_id": "60", "prefix": null}, "signature": {"version": "1.3", "source": "NASA/JPL Small-Body Database (SBDB) API"}, "orbit": {"moid_jup": "2.87468", "data_arc": "26098", "not_valid_before": null, "rms": ".34085", "equinox": "J2000", "sb_used": "SB441-N16", "t_jup": "3.811", "cov_epoch": "2458498.5", "orbit_id": "60", "not_valid_after": null, "moid": ".767743", "n_obs_used": 4636, "first_obs": "1954-02-25", "epoch": "2458498.5", "two_body": null, "soln_date": "2025-09-15 16:40:06", "condition_code": "0", "comment": null, "n_del_obs_used": null, "n_dop_obs_used": null, "model_pars": [], "source": "JPL", "pe_used": "DE441", "last_obs": "2025-08-09", "producer": "Otto Matic", "elements": [{"units": null, "label": "e", "value": ".09863460082735989", "sigma": 6.76725539379189e-10, "name": "e", "title": "eccentricity"}, {"sigma": 1.20955360108928e-09, "name": "q", "title": "perihelion distance", "label": "q", "units": "au", "value": "1.742683849150236"}, {"sigma": 8.33217254343611e-07, "title": "time of perihelion passage", "name": "tp", "units": "TDB", "label": "tp", "value": "2458572.003299698224"}, {"sigma": 8.17398949543591e-08, "title": "longitude of the ascending node", "name": "om", "units": "deg", "label": "node", "value": "357.0769111981517"}, {"title": "argument of perihelion", "name": "w", "sigma": 3.37960816489412e-07, "value": "217.8535910714284", "label": "peri", "units": "deg"}, {"sigma": 3.95798170619275e-08, "title": "inclination", "name": "i", "label": "i", "units": "deg", "value": "22.68210984048523"}]}}